{
  "type": "FeatureCollection",
  "features": [
    {
      "type": "Feature",
      "properties": {
        "norad_id": 34003,
        "name": "COSMOS 2251 DEB",
        "group": "cosmos-2251-debris",
        "lat": -4.378482687242687,
        "lon": 99.65769341031464,
        "alt_km": 1133.4681914073553,
        "timestamp": "2025-12-16T17:51:11.325631+00:00",
        "meta_object_name": "COSMOS 2251 DEB",
        "meta_object_id": "1993-036GN",
        "meta_epoch": "2025-12-14T21:36:56.499552",
        "meta_mean_motion": 13.8416537,
        "meta_eccentricity": 0.0274563,
        "meta_inclination": 74.0769,
        "meta_ra_of_asc_node": 281.5067,
        "meta_arg_of_pericenter": 33.033,
        "meta_mean_anomaly": 328.7613,
        "meta_ephemeris_type": 0,
        "meta_classification_type": "U",
        "meta_norad_cat_id": 34003,
        "meta_element_set_no": 999,
        "meta_rev_at_epoch": 84455,
        "meta_bstar": 0.0016495834,
        "meta_mean_motion_dot": 2.44e-05,
        "meta_mean_motion_ddot": 0,
        "tle_line1": "1 34003U 93036GN  25348.90065393  .00002440  00000+0  16496-2 0  9995",
        "tle_line2": "2 34003  74.0769 281.5067 0274563  33.0330 328.7613 13.84165370844557"
      },
      "geometry": {
        "type": "Point",
        "coordinates": [
          99.65769341031464,
          -4.378482687242687
        ]
      }
    },
    {
      "type": "Feature",
      "properties": {
        "norad_id": 34004,
        "name": "COSMOS 2251 DEB",
        "group": "cosmos-2251-debris",
        "lat": 34.62806704385317,
        "lon": -42.99644058590452,
        "alt_km": 721.5838274316211,
        "timestamp": "2025-12-16T17:51:11.325642+00:00",
        "meta_object_name": "COSMOS 2251 DEB",
        "meta_object_id": "1993-036GP",
        "meta_epoch": "2025-12-15T21:48:13.766688",
        "meta_mean_motion": 14.49041832,
        "meta_eccentricity": 0.00334136,
        "meta_inclination": 74.0349,
        "meta_ra_of_asc_node": 307.1672,
        "meta_arg_of_pericenter": 318.9629,
        "meta_mean_anomaly": 40.9016,
        "meta_ephemeris_type": 0,
        "meta_classification_type": "U",
        "meta_norad_cat_id": 34004,
        "meta_element_set_no": 999,
        "meta_rev_at_epoch": 88076,
        "meta_bstar": 0.00089905769,
        "meta_mean_motion_dot": 3.41e-05,
        "meta_mean_motion_ddot": 0,
        "tle_line1": "1 34004U 93036GP  25349.90849267  .00003410  00000+0  89906-3 0  9992",
        "tle_line2": "2 34004  74.0349 307.1672 0033413 318.9629  40.9016 14.49041832880763"
      },
      "geometry": {
        "type": "Point",
        "coordinates": [
          -42.99644058590452,
          34.62806704385317
        ]
      }
    },
    {
      "type": "Feature",
      "properties": {
        "norad_id": 34005,
        "name": "COSMOS 2251 DEB",
        "group": "cosmos-2251-debris",
        "lat": -3.7619361596113214,
        "lon": 27.327965563636948,
        "alt_km": 772.000641892002,
        "timestamp": "2025-12-16T17:51:11.325663+00:00",
        "meta_object_name": "COSMOS 2251 DEB",
        "meta_object_id": "1993-036GQ",
        "meta_epoch": "2025-12-15T17:59:44.680416",
        "meta_mean_motion": 14.40306495,
        "meta_eccentricity": 0.00209483,
        "meta_inclination": 74.044,
        "meta_ra_of_asc_node": 208.0861,
        "meta_arg_of_pericenter": 325.7772,
        "meta_mean_anomaly": 105.9604,
        "meta_ephemeris_type": 0,
        "meta_classification_type": "U",
        "meta_norad_cat_id": 34005,
        "meta_element_set_no": 999,
        "meta_rev_at_epoch": 88422,
        "meta_bstar": 0.00010463481,
        "meta_mean_motion_dot": 3.06e-06,
        "meta_mean_motion_ddot": 0,
        "tle_line1": "1 34005U 93036GQ  25349.74982269  .00000306  00000+0  10463-3 0  9998",
        "tle_line2": "2 34005  74.0440 208.0861 0020948 325.7772 105.9604 14.40306495884229"
      },
      "geometry": {
        "type": "Point",
        "coordinates": [
          27.327965563636948,
          -3.7619361596113214
        ]
      }
    },
    {
      "type": "Feature",
      "properties": {
        "norad_id": 34006,
        "name": "COSMOS 2251 DEB",
        "group": "cosmos-2251-debris",
        "lat": 23.25027368806987,
        "lon": -51.836869097106,
        "alt_km": 579.9708724336288,
        "timestamp": "2025-12-16T17:51:11.325675+00:00",
        "meta_object_name": "COSMOS 2251 DEB",
        "meta_object_id": "1993-036GR",
        "meta_epoch": "2025-12-15T20:57:17.603424",
        "meta_mean_motion": 14.94980338,
        "meta_eccentricity": 0.0011317,
        "meta_inclination": 74.0522,
        "meta_ra_of_asc_node": 136.9736,
        "meta_arg_of_pericenter": 79.1133,
        "meta_mean_anomaly": 71.9701,
        "meta_ephemeris_type": 0,
        "meta_classification_type": "U",
        "meta_norad_cat_id": 34006,
        "meta_element_set_no": 999,
        "meta_rev_at_epoch": 88715,
        "meta_bstar": 0.0021435912,
        "meta_mean_motion_dot": 0.00023504,
        "meta_mean_motion_ddot": 0,
        "tle_line1": "1 34006U 93036GR  25349.87312041  .00023504  00000+0  21436-2 0  9994",
        "tle_line2": "2 34006  74.0522 136.9736 0011317  79.1133  71.9701 14.94980338887150"
      },
      "geometry": {
        "type": "Point",
        "coordinates": [
          -51.836869097106,
          23.25027368806987
        ]
      }
    },
    {
      "type": "Feature",
      "properties": {
        "norad_id": 34007,
        "name": "COSMOS 2251 DEB",
        "group": "cosmos-2251-debris",
        "lat": 18.12494664526196,
        "lon": -15.428076542287917,
        "alt_km": 679.6870383461428,
        "timestamp": "2025-12-16T17:51:11.325685+00:00",
        "meta_object_name": "COSMOS 2251 DEB",
        "meta_object_id": "1993-036GS",
        "meta_epoch": "2025-12-15T17:10:49.173888",
        "meta_mean_motion": 14.64808555,
        "meta_eccentricity": 0.00442586,
        "meta_inclination": 74.0191,
        "meta_ra_of_asc_node": 341.1674,
        "meta_arg_of_pericenter": 115.1433,
        "meta_mean_anomaly": 245.4336,
        "meta_ephemeris_type": 0,
        "meta_classification_type": "U",
        "meta_norad_cat_id": 34007,
        "meta_element_set_no": 999,
        "meta_rev_at_epoch": 89123,
        "meta_bstar": 0.00048204278,
        "meta_mean_motion_dot": 2.579e-05,
        "meta_mean_motion_ddot": 0,
        "tle_line1": "1 34007U 93036GS  25349.71584692  .00002579  00000+0  48204-3 0  9993",
        "tle_line2": "2 34007  74.0191 341.1674 0044258 115.1433 245.4336 14.64808555891231"
      },
      "geometry": {
        "type": "Point",
        "coordinates": [
          -15.428076542287917,
          18.12494664526196
        ]
      }
    },
    {
      "type": "Feature",
      "properties": {
        "norad_id": 34008,
        "name": "COSMOS 2251 DEB",
        "group": "cosmos-2251-debris",
        "lat": -11.799074871543542,
        "lon": -40.227674360049484,
        "alt_km": 770.0973819578185,
        "timestamp": "2025-12-16T17:51:11.325695+00:00",
        "meta_object_name": "COSMOS 2251 DEB",
        "meta_object_id": "1993-036GT",
        "meta_epoch": "2025-12-15T21:54:16.497216",
        "meta_mean_motion": 14.33148579,
        "meta_eccentricity": 0.00244251,
        "meta_inclination": 74.0343,
        "meta_ra_of_asc_node": 324.7192,
        "meta_arg_of_pericenter": 319.4113,
        "meta_mean_anomaly": 61.6137,
        "meta_ephemeris_type": 0,
        "meta_classification_type": "U",
        "meta_norad_cat_id": 34008,
        "meta_element_set_no": 999,
        "meta_rev_at_epoch": 88010,
        "meta_bstar": 0.00012488789,
        "meta_mean_motion_dot": 3.18e-06,
        "meta_mean_motion_ddot": 0,
        "tle_line1": "1 34008U 93036GT  25349.91269094  .00000318  00000+0  12489-3 0  9997",
        "tle_line2": "2 34008  74.0343 324.7192 0024425 319.4113  61.6137 14.33148579880101"
      },
      "geometry": {
        "type": "Point",
        "coordinates": [
          -40.227674360049484,
          -11.799074871543542
        ]
      }
    },
    {
      "type": "Feature",
      "properties": {
        "norad_id": 34009,
        "name": "COSMOS 2251 DEB",
        "group": "cosmos-2251-debris",
        "lat": 23.56193649136949,
        "lon": -23.21003344579385,
        "alt_km": 761.5471599064067,
        "timestamp": "2025-12-16T17:51:11.325706+00:00",
        "meta_object_name": "COSMOS 2251 DEB",
        "meta_object_id": "1993-036GU",
        "meta_epoch": "2025-12-15T21:43:04.523808",
        "meta_mean_motion": 14.33224715,
        "meta_eccentricity": 0.0026626,
        "meta_inclination": 74.0371,
        "meta_ra_of_asc_node": 331.1519,
        "meta_arg_of_pericenter": 39.7923,
        "meta_mean_anomaly": 337.9386,
        "meta_ephemeris_type": 0,
        "meta_classification_type": "U",
        "meta_norad_cat_id": 34009,
        "meta_element_set_no": 999,
        "meta_rev_at_epoch": 87991,
        "meta_bstar": 0.00014184385,
        "meta_mean_motion_dot": 3.66e-06,
        "meta_mean_motion_ddot": 0,
        "tle_line1": "1 34009U 93036GU  25349.90491347  .00000366  00000+0  14184-3 0  9992",
        "tle_line2": "2 34009  74.0371 331.1519 0026626  39.7923 337.9386 14.33224715879913"
      },
      "geometry": {
        "type": "Point",
        "coordinates": [
          -23.21003344579385,
          23.56193649136949
        ]
      }
    }
  ]
}